H-2A R/B                
1 28932U 06002B   26155.00275636  .00006247  00000+0  30250-3 0  9991
2 28932  98.2552 309.6413 0049669 308.2411  51.4355 15.17891973107525
RESURS-DK 1             
1 29228U 06021A   26155.01277219  .00002370  00000+0  13939-3 0  9999
2 29228  69.9332  13.6552 0006030 303.6136  56.4455 15.13154696100584
CZ-4B R/B               
1 29507U 06046C   26155.13291546  .00005234  00000+0  25994-3 0  9994
2 29507  97.5456 199.7807 0031690 330.1583  29.7842 15.17683201 73156
CZ-2C R/B               
1 31114U 07010B   26154.32245812  .00000119  00000+0  73246-4 0  9999
2 31114  98.4088 263.3526 0059778  46.1443 314.4652 14.20272773991878
COSMO-SKYMED 1          
1 31598U 07023A   26155.30202439  .00002593  00000+0  23034-3 0  9993
2 31598  97.8863 347.0505 0001554  81.4027 278.7371 14.97043611 27864
COSMOS 2428             
1 31792U 07029A   26155.04644509 -.00000181  00000+0 -71429-4 0  9999
2 31792  70.9381  22.0691 0007352 160.1979 199.9429 14.12931324976298
SL-16 R/B               
1 31793U 07029B   26154.60507443  .00000160  00000+0  10774-3 0  9996
2 31793  70.9758 351.7816 0002314 257.9016 159.5807 14.14847422977524
KORONAS-FOTON           
1 33504U 09003A   26155.32423477  .00011957  00000+0  24855-3 0  9997
2 33504  82.4287 185.6749 0010246 191.4188 168.6829 15.45447603959117
CZ-2C R/B               
1 37731U 11030B   26155.21438880  .00001565  00000+0  20182-3 0  9991
2 37731  97.8650 110.8357 0053796  69.2961  26.3935 14.81438717802907
H-2A R/B                
1 38341U 12025E   26154.97771839  .00002976  00000+0  26873-3 0  9990
2 38341  98.4819 129.0360 0044713  31.6803 328.7092 14.95639537761110
SHIJIAN-16 (SJ-16)      
1 39358U 13057A   26155.23601755  .00001267  00000+0  12572-3 0  9997
2 39358  74.9732  21.2139 0016952 260.5129  99.4143 14.92580306684419
SL-4 R/B                
1 39679U 14021B   26154.64686584  .00012294  00000+0  25569-3 0  9994
2 39679  51.6063 277.0919 0091705  56.7885 304.1851 15.41642817669522
ALOS-2                  
1 39766U 14029A   26155.28891218  .00001377  00000+0  19112-3 0  9999
2 39766  97.9216 252.6372 0001598  89.6934 270.4461 14.79484461649670
YAOGAN-29               
1 41038U 15069A   26155.29136447  .00000155  00000+0  25722-4 0  9994
2 41038  98.0026 183.9033 0002941  75.0818 285.0721 14.83072417568714
ASTRO-H (HITOMI)        
1 41337U 16012A   26153.29804336  .00002399  00000+0  13655-3 0  9995
2 41337  30.9972 170.3433 0009474 103.6260 256.5434 15.10444105565036
HXMT (HUIYAN)           
1 42758U 17034A   26155.30711580  .00005469  00000+0  26970-3 0  9995
2 42758  43.0141 254.7572 0030268  62.0221 298.3685 15.18374134495708
SAOCOM 1A               
1 43641U 18076A   26155.24154134  .00000217  00000+0  33840-4 0  9994
2 43641  97.8879 342.1783 0001507  77.6456 282.4926 14.82164237414183
H-2A R/B                
1 43682U 18084L   26155.10955876  .00021256  00000+0  45323-3 0  9999
2 43682  98.8590  31.1465 0024518  84.0177 276.3860 15.44631880419108
SAOCOM 1B               
1 46265U 20059A   26155.27280395  .00000458  00000+0  64136-4 0  9994
2 46265  97.8882 341.3032 0001464  81.7310 278.4069 14.82159764311578
CSS (TIANHE)            
1 48274U 21035A   26155.11352728  .00025633  00000+0  30785-3 0  9998
2 48274  41.4695  41.5326 0009764 338.4220  21.6207 15.60233359291125
COSMOS 2550             
1 48865U 21056A   26154.26489617  .00005924  00000+0  18579-3 0  9998
2 48865  67.1411 142.0174 0008207 269.6582  90.3631 15.33822322276588
CZ-2C R/B               
1 52794U 22058K   26153.71454956  .00040633  00000+0  46803-3 0  9991
2 52794  50.1851 238.7695 0033406 206.7998 153.1250 15.60823058223389
CZ-2C R/B               
1 54039U 22132E   26155.09265172  .00056126  00000+0  46322-3 0  9991
2 54039  97.2904 161.5470 0017147 124.5379 235.7505 15.69970737203892
GSLV R/B                
1 54149U 22138AN  26155.01801760  .00002993  00000+0  25540-3 0  9992
2 54149  87.3794 137.4067 0020647 190.2739 169.8074 14.97194298196848
XRISM                   
1 57800U 23137A   26153.27519307  .00005615  00000+0  31044-3 0  9998
2 57800  31.0020  96.1840 0007694 175.1081 184.9634 15.12327778150605
ACS3                    
1 59588U 24077B   26154.63772334  .00041379  00000+0  31291-1 0  9998
2 59588  97.1690  76.4520 0041316  63.8137 296.7269 13.93351359106152
SZ-21 MODULE            
1 66515U 25246C   26152.94156862  .00047427  00000+0  30885-3 0  9999
2 66515  41.4749  42.1841 0007101 261.1371  98.8669 15.75039202 31334
